STARLINK-11565 [DTC]
1 62912U 25027F   26090.66989447  .00435820  00000+0  31770-2 0  9997
2 62912  42.9987 214.7608 0002449 292.7167  67.3442 15.71198534 66611
STARLINK-11622 [DTC]
1 63187U 25048E   26090.54200931  .00318765  00000+0  23585-2 0  9999
2 63187  43.0006 188.5648 0002482 210.7793 149.2930 15.71192682 61956
